[{"CCSDS_OMM_VERS":"2.0","COMMENT":"GENERATED VIA SPACE-TRACK.ORG API","CREATION_DATE":"2021-03-02T03:57:44","ORIGINATOR":"18 SPCS","OBJECT_NAME":"ONEWEB-0135","OBJECT_ID":"2020-100Z","CENTER_NAME":"EARTH","REF_FRAME":"TEME","TIME_SYSTEM":"UTC","MEAN_ELEMENT_THEORY":"SGP4","EPOCH":"2021-03-01T22:00:00.999936","MEAN_MOTION":"13.99480189","ECCENTRICITY":"0.00132540","INCLINATION":"87.6767","RA_OF_ASC_NODE":"16.1817","ARG_OF_PERICENTER":"9.5065","MEAN_ANOMALY":"322.9315","EPHEMERIS_TYPE":"0","CLASSIFICATION_TYPE":"U","NORAD_CAT_ID":"47281","ELEMENT_SET_NO":"999","REV_AT_EPOCH":"178","BSTAR":"-0.97230000000000","MEAN_MOTION_DOT":"-0.01325864","MEAN_MOTION_DDOT":"0.0000000000000","SEMIMAJOR_AXIS":"7273.733","PERIOD":"102.895","APOAPSIS":"905.238","PERIAPSIS":"885.957","OBJECT_TYPE":"PAYLOAD","RCS_SIZE":"MEDIUM","COUNTRY_CODE":"UK","LAUNCH_DATE":"2020-12-18","SITE":"VOSTO","DECAY_DATE":null,"FILE":"2973830","GP_ID":"172676704","TLE_LINE0":"0 ONEWEB-0135","TLE_LINE1":"1 47281U 20100Z   21060.91667824 -.01325864  00000-0 -97230+0 0  9998","TLE_LINE2":"2 47281  87.6767  16.1817 0013254   9.5065 322.9315 13.99480189  1782"},{"CCSDS_OMM_VERS":"2.0","COMMENT":"GENERATED VIA SPACE-TRACK.ORG API","CREATION_DATE":"2021-03-02T20:15:47","ORIGINATOR":"18 SPCS","OBJECT_NAME":"ONEWEB-0135","OBJECT_ID":"2020-100Z","CENTER_NAME":"EARTH","REF_FRAME":"TEME","TIME_SYSTEM":"UTC","MEAN_ELEMENT_THEORY":"SGP4","EPOCH":"2021-03-02T02:00:01.999872","MEAN_MOTION":"13.99024047","ECCENTRICITY":"0.00134750","INCLINATION":"87.6784","RA_OF_ASC_NODE":"16.1386","ARG_OF_PERICENTER":"9.4966","MEAN_ANOMALY":"82.0272","EPHEMERIS_TYPE":"0","CLASSIFICATION_TYPE":"U","NORAD_CAT_ID":"47281","ELEMENT_SET_NO":"999","REV_AT_EPOCH":"174","BSTAR":"-0.99795000000000","MEAN_MOTION_DOT":"-0.01348435","MEAN_MOTION_DDOT":"0.0000000000000","SEMIMAJOR_AXIS":"7275.314","PERIOD":"102.929","APOAPSIS":"906.982","PERIAPSIS":"887.375","OBJECT_TYPE":"PAYLOAD","RCS_SIZE":"MEDIUM","COUNTRY_CODE":"UK","LAUNCH_DATE":"2020-12-18","SITE":"VOSTO","DECAY_DATE":null,"FILE":"2974245","GP_ID":"172709822","TLE_LINE0":"0 ONEWEB-0135","TLE_LINE1":"1 47281U 20100Z   21061.08335648 -.01348435  00000-0 -99795+0 0  9990","TLE_LINE2":"2 47281  87.6784  16.1386 0013475   9.4966  82.0272 13.99024047  1745"},{"CCSDS_OMM_VERS":"2.0","COMMENT":"GENERATED VIA SPACE-TRACK.ORG API","CREATION_DATE":"2021-03-02T14:36:12","ORIGINATOR":"18 SPCS","OBJECT_NAME":"ONEWEB-0135","OBJECT_ID":"2020-100Z","CENTER_NAME":"EARTH","REF_FRAME":"TEME","TIME_SYSTEM":"UTC","MEAN_ELEMENT_THEORY":"SGP4","EPOCH":"2021-03-02T12:00:02.000160","MEAN_MOTION":"13.97629588","ECCENTRICITY":"0.00130640","INCLINATION":"87.6817","RA_OF_ASC_NODE":"16.0332","ARG_OF_PERICENTER":"9.1767","MEAN_ANOMALY":"18.7201","EPHEMERIS_TYPE":"0","CLASSIFICATION_TYPE":"U","NORAD_CAT_ID":"47281","ELEMENT_SET_NO":"999","REV_AT_EPOCH":"1101","BSTAR":"-0.40911000000000","MEAN_MOTION_DOT":"-0.00551488","MEAN_MOTION_DDOT":"0.0000000000000","SEMIMAJOR_AXIS":"7280.152","PERIOD":"103.032","APOAPSIS":"911.528","PERIAPSIS":"892.506","OBJECT_TYPE":"PAYLOAD","RCS_SIZE":"MEDIUM","COUNTRY_CODE":"UK","LAUNCH_DATE":"2020-12-18","SITE":"VOSTO","DECAY_DATE":null,"FILE":"2973899","GP_ID":"172679620","TLE_LINE0":"0 ONEWEB-0135","TLE_LINE1":"1 47281U 20100Z   21061.50002315 -.00551488  00000-0 -40911+0 0  9998","TLE_LINE2":"2 47281  87.6817  16.0332 0013064   9.1767  18.7201 13.97629588 11010"},{"CCSDS_OMM_VERS":"2.0","COMMENT":"GENERATED VIA SPACE-TRACK.ORG API","CREATION_DATE":"2021-03-02T18:36:13","ORIGINATOR":"18 SPCS","OBJECT_NAME":"ONEWEB-0135","OBJECT_ID":"2020-100Z","CENTER_NAME":"EARTH","REF_FRAME":"TEME","TIME_SYSTEM":"UTC","MEAN_ELEMENT_THEORY":"SGP4","EPOCH":"2021-03-02T16:00:00.999936","MEAN_MOTION":"13.97235840","ECCENTRICITY":"0.00131750","INCLINATION":"87.6818","RA_OF_ASC_NODE":"15.9913","ARG_OF_PERICENTER":"8.9455","MEAN_ANOMALY":"136.9355","EPHEMERIS_TYPE":"0","CLASSIFICATION_TYPE":"U","NORAD_CAT_ID":"47281","ELEMENT_SET_NO":"999","REV_AT_EPOCH":"1103","BSTAR":"0.01869600000000","MEAN_MOTION_DOT":"0.00026276","MEAN_MOTION_DDOT":"0.0000000000000","SEMIMAJOR_AXIS":"7281.520","PERIOD":"103.061","APOAPSIS":"912.978","PERIAPSIS":"893.791","OBJECT_TYPE":"PAYLOAD","RCS_SIZE":"MEDIUM","COUNTRY_CODE":"UK","LAUNCH_DATE":"2020-12-18","SITE":"VOSTO","DECAY_DATE":null,"FILE":"2974136","GP_ID":"172685411","TLE_LINE0":"0 ONEWEB-0135","TLE_LINE1":"1 47281U 20100Z   21061.66667824  .00026276  00000-0  18696-1 0  9994","TLE_LINE2":"2 47281  87.6818  15.9913 0013175   8.9455 136.9355 13.97235840 11037"},{"CCSDS_OMM_VERS":"2.0","COMMENT":"GENERATED VIA SPACE-TRACK.ORG API","CREATION_DATE":"2021-03-03T03:24:48","ORIGINATOR":"18 SPCS","OBJECT_NAME":"ONEWEB-0135","OBJECT_ID":"2020-100Z","CENTER_NAME":"EARTH","REF_FRAME":"TEME","TIME_SYSTEM":"UTC","MEAN_ELEMENT_THEORY":"SGP4","EPOCH":"2021-03-02T22:00:00.999936","MEAN_MOTION":"13.97273736","ECCENTRICITY":"0.00131320","INCLINATION":"87.6817","RA_OF_ASC_NODE":"15.9278","ARG_OF_PERICENTER":"7.9252","MEAN_ANOMALY":"314.6901","EPHEMERIS_TYPE":"0","CLASSIFICATION_TYPE":"U","NORAD_CAT_ID":"47281","ELEMENT_SET_NO":"999","REV_AT_EPOCH":"173","BSTAR":"-0.02035400000000","MEAN_MOTION_DOT":"-0.00028385","MEAN_MOTION_DDOT":"0.0000000000000","SEMIMAJOR_AXIS":"7281.388","PERIOD":"103.058","APOAPSIS":"912.815","PERIAPSIS":"893.691","OBJECT_TYPE":"PAYLOAD","RCS_SIZE":"MEDIUM","COUNTRY_CODE":"UK","LAUNCH_DATE":"2020-12-18","SITE":"VOSTO","DECAY_DATE":null,"FILE":"2974426","GP_ID":"172733114","TLE_LINE0":"0 ONEWEB-0135","TLE_LINE1":"1 47281U 20100Z   21061.91667824 -.00028385  00000-0 -20354-1 0  9991","TLE_LINE2":"2 47281  87.6817  15.9278 0013132   7.9252 314.6901 13.97273736  1731"},{"CCSDS_OMM_VERS":"2.0","COMMENT":"GENERATED VIA SPACE-TRACK.ORG API","CREATION_DATE":"2021-03-03T14:36:12","ORIGINATOR":"18 SPCS","OBJECT_NAME":"ONEWEB-0135","OBJECT_ID":"2020-100Z","CENTER_NAME":"EARTH","REF_FRAME":"TEME","TIME_SYSTEM":"UTC","MEAN_ELEMENT_THEORY":"SGP4","EPOCH":"2021-03-03T12:00:00.999648","MEAN_MOTION":"13.97278087","ECCENTRICITY":"0.00131100","INCLINATION":"87.6816","RA_OF_ASC_NODE":"15.7800","ARG_OF_PERICENTER":"6.5609","MEAN_ANOMALY":"8.4785","EPHEMERIS_TYPE":"0","CLASSIFICATION_TYPE":"U","NORAD_CAT_ID":"47281","ELEMENT_SET_NO":"999","REV_AT_EPOCH":"1115","BSTAR":"-0.03582700000000","MEAN_MOTION_DOT":"-0.00049838","MEAN_MOTION_DDOT":"0.0000000000000","SEMIMAJOR_AXIS":"7281.373","PERIOD":"103.058","APOAPSIS":"912.784","PERIAPSIS":"893.692","OBJECT_TYPE":"PAYLOAD","RCS_SIZE":"MEDIUM","COUNTRY_CODE":"UK","LAUNCH_DATE":"2020-12-18","SITE":"VOSTO","DECAY_DATE":null,"FILE":"2974675","GP_ID":"172739609","TLE_LINE0":"0 ONEWEB-0135","TLE_LINE1":"1 47281U 20100Z   21062.50001157 -.00049838  00000-0 -35827-1 0  9995","TLE_LINE2":"2 47281  87.6816  15.7800 0013110   6.5609   8.4785 13.97278087 11155"},{"CCSDS_OMM_VERS":"2.0","COMMENT":"GENERATED VIA SPACE-TRACK.ORG API","CREATION_DATE":"2021-03-03T20:44:47","ORIGINATOR":"18 SPCS","OBJECT_NAME":"ONEWEB-0135","OBJECT_ID":"2020-100Z","CENTER_NAME":"EARTH","REF_FRAME":"TEME","TIME_SYSTEM":"UTC","MEAN_ELEMENT_THEORY":"SGP4","EPOCH":"2021-03-03T14:00:01.000224","MEAN_MOTION":"13.97260901","ECCENTRICITY":"0.00130910","INCLINATION":"87.6815","RA_OF_ASC_NODE":"15.7591","ARG_OF_PERICENTER":"6.3291","MEAN_ANOMALY":"67.6350","EPHEMERIS_TYPE":"0","CLASSIFICATION_TYPE":"U","NORAD_CAT_ID":"47281","ELEMENT_SET_NO":"999","REV_AT_EPOCH":"173","BSTAR":"-0.01687600000000","MEAN_MOTION_DOT":"-0.00023542","MEAN_MOTION_DDOT":"0.0000000000000","SEMIMAJOR_AXIS":"7281.433","PERIOD":"103.059","APOAPSIS":"912.830","PERIAPSIS":"893.766","OBJECT_TYPE":"PAYLOAD","RCS_SIZE":"MEDIUM","COUNTRY_CODE":"UK","LAUNCH_DATE":"2020-12-18","SITE":"VOSTO","DECAY_DATE":null,"FILE":"2974892","GP_ID":"172764760","TLE_LINE0":"0 ONEWEB-0135","TLE_LINE1":"1 47281U 20100Z   21062.58334491 -.00023542  00000-0 -16876-1 0  9990","TLE_LINE2":"2 47281  87.6815  15.7591 0013091   6.3291  67.6350 13.97260901  1738"},{"CCSDS_OMM_VERS":"2.0","COMMENT":"GENERATED VIA SPACE-TRACK.ORG API","CREATION_DATE":"2021-03-03T22:26:12","ORIGINATOR":"18 SPCS","OBJECT_NAME":"ONEWEB-0135","OBJECT_ID":"2020-100Z","CENTER_NAME":"EARTH","REF_FRAME":"TEME","TIME_SYSTEM":"UTC","MEAN_ELEMENT_THEORY":"SGP4","EPOCH":"2021-03-03T20:00:01.000224","MEAN_MOTION":"13.97246723","ECCENTRICITY":"0.00130320","INCLINATION":"87.6816","RA_OF_ASC_NODE":"15.6959","ARG_OF_PERICENTER":"5.3750","MEAN_ANOMALY":"245.3391","EPHEMERIS_TYPE":"0","CLASSIFICATION_TYPE":"U","NORAD_CAT_ID":"47281","ELEMENT_SET_NO":"999","REV_AT_EPOCH":"1120","BSTAR":"0.01863700000000","MEAN_MOTION_DOT":"0.00026197","MEAN_MOTION_DDOT":"0.0000000000000","SEMIMAJOR_AXIS":"7281.482","PERIOD":"103.060","APOAPSIS":"912.836","PERIAPSIS":"893.858","OBJECT_TYPE":"PAYLOAD","RCS_SIZE":"MEDIUM","COUNTRY_CODE":"UK","LAUNCH_DATE":"2020-12-18","SITE":"VOSTO","DECAY_DATE":null,"FILE":"2974954","GP_ID":"172767146","TLE_LINE0":"0 ONEWEB-0135","TLE_LINE1":"1 47281U 20100Z   21062.83334491  .00026197  00000-0  18637-1 0  9992","TLE_LINE2":"2 47281  87.6816  15.6959 0013032   5.3750 245.3391 13.97246723 11209"}]